[{"OBJECT_NAME":"CONNECTA IOT-10","OBJECT_ID":"2025-135AD","EPOCH":"2026-03-09T07:35:31.513344","MEAN_MOTION":15.2050793,"ECCENTRICITY":6.9e-5,"INCLINATION":97.4557,"RA_OF_ASC_NODE":184.3751,"ARG_OF_PERICENTER":59.0746,"MEAN_ANOMALY":301.0557,"EPHEMERIS_TYPE":0,"CLASSIFICATION_TYPE":"U","NORAD_CAT_ID":64555,"ELEMENT_SET_NO":999,"REV_AT_EPOCH":3968,"BSTAR":0.00024785757,"MEAN_MOTION_DOT":5.349e-5,"MEAN_MOTION_DDOT":0},{"OBJECT_NAME":"FLOCK 4H-34","OBJECT_ID":"2025-276BZ","EPOCH":"2026-03-09T04:19:28.608672","MEAN_MOTION":15.1928367,"ECCENTRICITY":0.00010193,"INCLINATION":97.4305,"RA_OF_ASC_NODE":143.5834,"ARG_OF_PERICENTER":313.8618,"MEAN_ANOMALY":46.2533,"EPHEMERIS_TYPE":0,"CLASSIFICATION_TYPE":"U","NORAD_CAT_ID":66737,"ELEMENT_SET_NO":999,"REV_AT_EPOCH":1449,"BSTAR":0.00036111821,"MEAN_MOTION_DOT":7.553e-5,"MEAN_MOTION_DDOT":0}]
