CONNECTA IOT-10         
1 64555U 25135AD  26068.31633696  .00005349  00000+0  24786-3 0  9990
2 64555  97.4557 184.3751 0000690  59.0746 301.0557 15.20507930 39688
FLOCK 4H-34             
1 66737U 25276BZ  26068.18019223  .00007553  00000+0  36112-3 0  9994
2 66737  97.4305 143.5834 0001019 313.8618  46.2533 15.19283670 14491
